     3.00           N                   E                   RINEX VERSION / TYPE
BRD_USR             ESA                 20190106 051759  UTCPGM / RUN BY / DATE
 GAL   5.0250E+01 -3.9062E-02 -1.6785E-03  0.0000E+00       IONOSPHERIC CORR
GAUT  0.0000000000E+00 0.000000000E+00      0 2035 GSTB   0 TIME SYSTEM CORR
GPGA -2.6484485716E-09 2.664535259E-15      0 2035 GSTB   0 TIME SYSTEM CORR
                                                            END OF HEADER
E01 2019 01 06 02 40 00-5.146851763129E-04-8.157030606526E-12 0.000000000000E+00
     1.600000000000E+01 1.538437500000E+02 2.311524855717E-09-8.576211606209E-01
     7.016584277153E-06 1.170150935650E-04 1.250021159649E-05 5.440630256653E+03
     9.600000000000E+03-1.862645149231E-08-2.946302048918E+00-1.303851604462E-08
     9.903531121137E-01 8.296875000000E+01-8.612242547042E-01-5.082711715344E-09
    -7.000291590243E-11 2.580000000000E+02 2.035000000000E+03 0.000000000000E+00
     3.120000000000E+00 0.000000000000E+00-4.423782229424E-09 0.000000000000E+00
     1.080000000000E+04 0.000000000000E+00 0.000000000000E+00 0.000000000000E+00
E02 2019 01 06 02 40 00 4.214566433802E-05 1.620037437533E-12 0.000000000000E+00
     1.600000000000E+01 1.657500000000E+02 2.383670718025E-09 1.707471809500E+00
     7.618218660355E-06 2.666073851287E-04 1.066364347935E-05 5.440625471115E+03
     9.600000000000E+03 1.303851604462E-08-2.946334947020E+00 1.490116119385E-08
     9.903610674622E-01 1.251875000000E+02-2.864392063141E-01-5.075211402926E-09
    -4.428755904031E-11 2.580000000000E+02 2.035000000000E+03 0.000000000000E+00
     3.120000000000E+00 0.000000000000E+00-6.053596735001E-09 0.000000000000E+00
     1.080000000000E+04 0.000000000000E+00 0.000000000000E+00 0.000000000000E+00
E03 2019 01 06 02 40 00-1.189826289192E-04-4.320099833421E-12 0.000000000000E+00
     1.600000000000E+01 3.043750000000E+01 3.625865317559E-09 2.863865023496E+00
     1.458451151848E-06 2.757668262348E-04 4.664063453674E-06 5.440603944778E+03
     9.600000000000E+03 1.303851604462E-08 1.244531659808E+00 3.725290298462E-08
     9.521897107063E-01 2.370312500000E+02 6.473693849162E-01-5.741667734936E-09
     4.364467511876E-10 2.580000000000E+02 2.035000000000E+03 0.000000000000E+00
     3.120000000000E+00 0.000000000000E+00-1.629814505577E-09 0.000000000000E+00
     1.080000000000E+04 0.000000000000E+00 0.000000000000E+00 0.000000000000E+00
E04 2019 01 06 02 40 00-1.941410009749E-04-7.872813512222E-12 0.000000000000E+00
     1.600000000000E+01 3.318750000000E+01 3.616222058735E-09-2.357523634654E+00
     1.601874828339E-06 8.345232345164E-05 4.999339580536E-06 5.440606710434E+03
     9.600000000000E+03-7.450580596924E-09 1.244581251268E+00-3.352761268616E-08
     9.522326532036E-01 2.281875000000E+02 1.946250357551E+00-5.715595220340E-09
     4.868059917093E-10 2.580000000000E+02 2.035000000000E+03 0.000000000000E+00
     3.120000000000E+00 0.000000000000E+00-7.916241884232E-09 0.000000000000E+00
     1.080000000000E+04 0.000000000000E+00 0.000000000000E+00 0.000000000000E+00
E05 2019 01 06 01 50 00 1.299876603298E-04-6.565414878423E-12 0.000000000000E+00
     1.100000000000E+01 3.240625000000E+01 3.621579424748E-09 2.357783959463E+00
     1.562759280205E-06 1.484995009378E-04 4.608184099197E-06 5.440604419708E+03
     6.600000000000E+03-1.862645149231E-08 1.244532634111E+00 3.352761268616E-08
     9.522017183379E-01 2.380000000000E+02 1.568988493594E+00-5.733453107050E-09
     4.268034923643E-10 2.580000000000E+02 2.035000000000E+03 0.000000000000E+00
     3.120000000000E+00 0.000000000000E+00-1.396983861923E-09 0.000000000000E+00
     1.080000000000E+04 0.000000000000E+00 0.000000000000E+00 0.000000000000E+00
E07 2019 01 06 02 40 00-1.072578015737E-04-7.105427357601E-12 0.000000000000E+00
     1.600000000000E+01 2.728125000000E+01 3.655152251763E-09 1.853131673390E+00
     1.247972249985E-06 1.453933073208E-04 4.854053258896E-06 5.440603988647E+03
     9.600000000000E+03 4.842877388000E-08 1.244533340701E+00-4.470348358154E-08
     9.522339990882E-01 2.332187500000E+02 8.768071337365E-02-5.689522705744E-09
     4.082312901861E-10 2.580000000000E+02 2.035000000000E+03 0.000000000000E+00
     3.120000000000E+00 0.000000000000E+00 2.328306436539E-10 0.000000000000E+00
     1.080000000000E+04 0.000000000000E+00 0.000000000000E+00 0.000000000000E+00
E08 2019 01 06 02 40 00 6.429038534407E-03-7.489120434911E-12 0.000000000000E+00
     1.600000000000E+01 2.937500000000E+01 3.569791553290E-09 2.225256544398E+00
     1.410022377968E-06 2.294534351677E-04 4.876405000687E-06 5.440603128433E+03
     9.600000000000E+03 2.793967723846E-08 1.235890934172E+00 2.980232238770E-08
     9.581759393025E-01 2.347812500000E+02 5.022045959115E-01-5.697380175896E-09
     4.296607542379E-10 2.580000000000E+02 2.035000000000E+03 0.000000000000E+00
     3.120000000000E+00 0.000000000000E+00-8.381903171539E-09 0.000000000000E+00
     1.080000000000E+04 0.000000000000E+00 0.000000000000E+00 0.000000000000E+00
E09 2019 01 06 02 10 00 6.566773226950E-03-1.134026206273E-11 0.000000000000E+00
     1.300000000000E+01 3.071875000000E+01 3.525861151984E-09-1.562774675907E+00
     1.443549990654E-06 2.477748785168E-04 5.077570676804E-06 5.440608646393E+03
     7.800000000000E+03-1.303851604462E-08 1.235897957642E+00 0.000000000000E+00
     9.582047412336E-01 2.307500000000E+02 1.388326929275E-01-5.697380175896E-09
     4.335894893140E-10 2.580000000000E+02 2.035000000000E+03 0.000000000000E+00
     3.120000000000E+00 0.000000000000E+00-3.259629011154E-09 0.000000000000E+00
     1.080000000000E+04 0.000000000000E+00 0.000000000000E+00 0.000000000000E+00
E11 2019 01 06 02 40 00 5.719114793465E-03 1.122657522501E-12 0.000000000000E+00
     1.600000000000E+01-1.736875000000E+02 2.879048495355E-09 1.243280964328E+00
    -8.001923561096E-06 2.402859972790E-04 2.443790435791E-06 5.440610504150E+03
     9.600000000000E+03 3.166496753693E-08-8.606426496780E-01-5.587935447693E-08
     9.819702696776E-01 2.948125000000E+02-3.486683430474E-01-5.703094699643E-09
    -3.700154126271E-10 2.580000000000E+02 2.035000000000E+03 0.000000000000E+00
     3.120000000000E+00 0.000000000000E+00-1.816079020500E-08 0.000000000000E+00
     1.080000000000E+04 0.000000000000E+00 0.000000000000E+00 0.000000000000E+00
E12 2019 01 06 02 10 00 5.879073054530E-03 8.435563358944E-11 0.000000000000E+00
     1.300000000000E+01-1.758750000000E+02 2.907621114090E-09 2.379866159275E+00
    -8.171424269676E-06 3.694946644828E-04 1.892447471619E-06 5.440607057571E+03
     7.800000000000E+03 3.352761268616E-08-8.606485467008E-01 9.313225746155E-09
     9.819853626034E-01 3.091250000000E+02-9.047477001790E-01-5.677022185047E-09
    -3.392998474863E-10 2.580000000000E+02 2.035000000000E+03 0.000000000000E+00
     3.120000000000E+00 0.000000000000E+00-1.536682248116E-08 0.000000000000E+00
     1.080000000000E+04 0.000000000000E+00 0.000000000000E+00 0.000000000000E+00
E13 2019 01 06 02 40 00 3.813804360107E-04 3.694822225953E-13 0.000000000000E+00
     1.600000000000E+01-1.938437500000E+02 2.892263331520E-09-6.318479689241E-01
    -8.894130587578E-06 3.321429248899E-04 2.497807145119E-06 5.440602643967E+03
     9.600000000000E+03 3.539025783539E-08-8.659432758647E-01 7.450580596924E-09
     9.852108175508E-01 2.965312500000E+02-1.608755180071E+00-5.732738791581E-09
    -4.264463346301E-10 2.580000000000E+02 2.035000000000E+03 0.000000000000E+00
     3.120000000000E+00 5.600000000000E+01-4.656612873077E-09 0.000000000000E+00
     1.080000000000E+04 0.000000000000E+00 0.000000000000E+00 0.000000000000E+00
E14 2019 01 06 02 20 00 6.464128149673E-03-5.599076757790E-12 0.000000000000E+00
     1.400000000000E+01 4.668750000000E+01 1.409344419138E-09 1.150921857955E+00
    -5.085021257401E-07 1.663909056224E-01-5.232170224190E-06 5.289376874924E+03
     8.400000000000E+03 5.403533577919E-06-1.461166101742E+00 1.940876245499E-06
     8.825785459790E-01 4.315625000000E+02 1.453093362828E+00-1.820790128932E-09
    -7.782467028133E-10 2.580000000000E+02 2.035000000000E+03 0.000000000000E+00
     3.120000000000E+00 5.600000000000E+01 3.329478204250E-08 0.000000000000E+00
     1.080000000000E+04 0.000000000000E+00 0.000000000000E+00 0.000000000000E+00
E15 2019 01 06 01 50 00 9.237431222573E-04-1.080024958355E-12 0.000000000000E+00
     1.100000000000E+01-1.934687500000E+02 2.822260415617E-09-1.440072345936E-01
    -8.895993232727E-06 3.828989574686E-04 3.196299076080E-06 5.440603179932E+03
     6.600000000000E+03 2.421438694000E-08-8.659383063320E-01 5.215406417847E-08
     9.851702142595E-01 2.832187500000E+02-1.686315951360E+00-5.703809015111E-09
    -4.189460222120E-10 2.580000000000E+02 2.035000000000E+03 0.000000000000E+00
     3.120000000000E+00 5.600000000000E+01 1.629814505577E-09 0.000000000000E+00
     1.080000000000E+04 0.000000000000E+00 0.000000000000E+00 0.000000000000E+00
E18 2019 01 06 02 40 00 5.627678357996E-03-2.856381797756E-11 0.000000000000E+00
     1.600000000000E+01-9.025000000000E+01 2.144375036113E-09-1.858925572146E+00
    -1.728534698486E-06 1.664299432887E-01-4.839152097702E-06 5.289378816605E+03
     9.600000000000E+03 3.490597009659E-06-1.443979345159E+00-2.877786755562E-06
     8.817705470655E-01 4.067812500000E+02 1.437571377761E+00-2.731185193397E-09
     1.207907457051E-09 2.580000000000E+02 2.035000000000E+03 0.000000000000E+00
     3.120000000000E+00 5.600000000000E+01 1.396983861923E-08 0.000000000000E+00
     1.080000000000E+04 0.000000000000E+00 0.000000000000E+00 0.000000000000E+00
